{
  "type": "FeatureCollection",
  "features": [
    {
      "type": "Feature",
      "properties": {
        "norad_id": 59626,
        "name": "LEGION 2",
        "group": "resource",
        "lat": 18.483574620004728,
        "lon": 51.24239498088873,
        "alt_km": 514.6728108295583,
        "timestamp": "2025-12-04T23:34:05.388597+00:00",
        "meta_object_name": "LEGION 2",
        "meta_object_id": "2024-081B",
        "meta_epoch": "2025-12-04T15:34:03.277056",
        "meta_mean_motion": 15.16366639,
        "meta_eccentricity": 0.000615,
        "meta_inclination": 97.5231,
        "meta_ra_of_asc_node": 53.4438,
        "meta_arg_of_pericenter": 326.475,
        "meta_mean_anomaly": 33.6093,
        "meta_ephemeris_type": 0,
        "meta_classification_type": "U",
        "meta_norad_cat_id": 59626,
        "meta_element_set_no": 999,
        "meta_rev_at_epoch": 8805,
        "meta_bstar": 0.00056555,
        "meta_mean_motion_dot": 0.00010921,
        "meta_mean_motion_ddot": 0,
        "tle_line1": "1 59626U 24081B   25338.64864904  .00010921  00000+0  56555-3 0  9996",
        "tle_line2": "2 59626  97.5231  53.4438 0006150 326.4750  33.6093 15.16366639 88054"
      },
      "geometry": {
        "type": "Point",
        "coordinates": [
          51.24239498088873,
          18.483574620004728
        ]
      }
    },
    {
      "type": "Feature",
      "properties": {
        "norad_id": 60182,
        "name": "ALOS-4 (DAICHI-4)",
        "group": "resource",
        "lat": -13.604241693953266,
        "lon": 75.87068969339796,
        "alt_km": 635.901375832289,
        "timestamp": "2025-12-04T23:34:05.388607+00:00",
        "meta_object_name": "ALOS-4 (DAICHI-4)",
        "meta_object_id": "2024-123A",
        "meta_epoch": "2025-12-04T18:45:38.085984",
        "meta_mean_motion": 14.79481167,
        "meta_eccentricity": 0.0001307,
        "meta_inclination": 97.9229,
        "meta_ra_of_asc_node": 73.7419,
        "meta_arg_of_pericenter": 98.3079,
        "meta_mean_anomaly": 261.8281,
        "meta_ephemeris_type": 0,
        "meta_classification_type": "U",
        "meta_norad_cat_id": 60182,
        "meta_element_set_no": 999,
        "meta_rev_at_epoch": 7713,
        "meta_bstar": -1.2774e-05,
        "meta_mean_motion_dot": -1.47e-06,
        "meta_mean_motion_ddot": 0,
        "tle_line1": "1 60182U 24123A   25338.78169081 -.00000147  00000+0 -12774-4 0  9998",
        "tle_line2": "2 60182  97.9229  73.7419 0001307  98.3079 261.8281 14.79481167 77139"
      },
      "geometry": {
        "type": "Point",
        "coordinates": [
          75.87068969339796,
          -13.604241693953266
        ]
      }
    },
    {
      "type": "Feature",
      "properties": {
        "norad_id": 60452,
        "name": "LEGION 3",
        "group": "resource",
        "lat": 11.522907678446344,
        "lon": 3.4861515870143864,
        "alt_km": 524.5825408801547,
        "timestamp": "2025-12-04T23:34:05.388618+00:00",
        "meta_object_name": "LEGION 3",
        "meta_object_id": "2024-146A",
        "meta_epoch": "2025-12-04T12:25:22.660896",
        "meta_mean_motion": 15.15626149,
        "meta_eccentricity": 0.0013903,
        "meta_inclination": 45.0023,
        "meta_ra_of_asc_node": 354.2057,
        "meta_arg_of_pericenter": 152.227,
        "meta_mean_anomaly": 207.9353,
        "meta_ephemeris_type": 0,
        "meta_classification_type": "U",
        "meta_norad_cat_id": 60452,
        "meta_element_set_no": 999,
        "meta_rev_at_epoch": 7248,
        "meta_bstar": 0.00060584,
        "meta_mean_motion_dot": 0.00011489,
        "meta_mean_motion_ddot": 0,
        "tle_line1": "1 60452U 24146A   25338.51762339  .00011489  00000+0  60584-3 0  9999",
        "tle_line2": "2 60452  45.0023 354.2057 0013903 152.2270 207.9353 15.15626149 72484"
      },
      "geometry": {
        "type": "Point",
        "coordinates": [
          3.4861515870143864,
          11.522907678446344
        ]
      }
    },
    {
      "type": "Feature",
      "properties": {
        "norad_id": 60453,
        "name": "LEGION 4",
        "group": "resource",
        "lat": 8.280876244324247,
        "lon": 91.8056603161318,
        "alt_km": 519.014745436456,
        "timestamp": "2025-12-04T23:34:05.388628+00:00",
        "meta_object_name": "LEGION 4",
        "meta_object_id": "2024-146B",
        "meta_epoch": "2025-12-04T15:36:27.389664",
        "meta_mean_motion": 15.15691703,
        "meta_eccentricity": 0.000996,
        "meta_inclination": 45.0387,
        "meta_ra_of_asc_node": 85.2201,
        "meta_arg_of_pericenter": 268.9762,
        "meta_mean_anomaly": 90.9976,
        "meta_ephemeris_type": 0,
        "meta_classification_type": "U",
        "meta_norad_cat_id": 60453,
        "meta_element_set_no": 999,
        "meta_rev_at_epoch": 7135,
        "meta_bstar": 0.00065691,
        "meta_mean_motion_dot": 0.00012492,
        "meta_mean_motion_ddot": 0,
        "tle_line1": "1 60453U 24146B   25338.65031701  .00012492  00000+0  65691-3 0  9996",
        "tle_line2": "2 60453  45.0387  85.2201 0009960 268.9762  90.9976 15.15691703 71353"
      },
      "geometry": {
        "type": "Point",
        "coordinates": [
          91.8056603161318,
          8.280876244324247
        ]
      }
    },
    {
      "type": "Feature",
      "properties": {
        "norad_id": 60989,
        "name": "SENTINEL-2C",
        "group": "resource",
        "lat": 26.380386628134026,
        "lon": 47.29093597948214,
        "alt_km": 787.7521006476218,
        "timestamp": "2025-12-04T23:34:05.388639+00:00",
        "meta_object_name": "SENTINEL-2C",
        "meta_object_id": "2024-157A",
        "meta_epoch": "2025-12-04T16:43:49.846080",
        "meta_mean_motion": 14.30825318,
        "meta_eccentricity": 0.0001132,
        "meta_inclination": 98.5612,
        "meta_ra_of_asc_node": 51.2952,
        "meta_arg_of_pericenter": 101.5414,
        "meta_mean_anomaly": 258.5896,
        "meta_ephemeris_type": 0,
        "meta_classification_type": "U",
        "meta_norad_cat_id": 60989,
        "meta_element_set_no": 999,
        "meta_rev_at_epoch": 6517,
        "meta_bstar": 0.00014025,
        "meta_mean_motion_dot": 3.24e-06,
        "meta_mean_motion_ddot": 0,
        "tle_line1": "1 60989U 24157A   25338.69710470  .00000324  00000+0  14025-3 0  9999",
        "tle_line2": "2 60989  98.5612  51.2952 0001132 101.5414 258.5896 14.30825318 65179"
      },
      "geometry": {
        "type": "Point",
        "coordinates": [
          47.29093597948214,
          26.380386628134026
        ]
      }
    },
    {
      "type": "Feature",
      "properties": {
        "norad_id": 61735,
        "name": "IONOSFERA-M 1",
        "group": "resource",
        "lat": 20.584455863468925,
        "lon": 32.20168230078873,
        "alt_km": 816.6753635343639,
        "timestamp": "2025-12-04T23:34:05.388649+00:00",
        "meta_object_name": "IONOSFERA-M 1",
        "meta_object_id": "2024-199A",
        "meta_epoch": "2025-12-04T17:45:34.031808",
        "meta_mean_motion": 14.22711363,
        "meta_eccentricity": 0.0001315,
        "meta_inclination": 98.7408,
        "meta_ra_of_asc_node": 208.6492,
        "meta_arg_of_pericenter": 32.8059,
        "meta_mean_anomaly": 327.32,
        "meta_ephemeris_type": 0,
        "meta_classification_type": "U",
        "meta_norad_cat_id": 61735,
        "meta_element_set_no": 999,
        "meta_rev_at_epoch": 10005,
        "meta_bstar": 9.5756e-05,
        "meta_mean_motion_dot": 1.7e-06,
        "meta_mean_motion_ddot": 0,
        "tle_line1": "1 61735U 24199A   25338.73997722  .00000170  00000+0  95756-4 0  9997",
        "tle_line2": "2 61735  98.7408 208.6492 0001315  32.8059 327.3200 14.22711363100051"
      },
      "geometry": {
        "type": "Point",
        "coordinates": [
          32.20168230078873,
          20.584455863468925
        ]
      }
    },
    {
      "type": "Feature",
      "properties": {
        "norad_id": 61736,
        "name": "IONOSFERA-M 2",
        "group": "resource",
        "lat": -18.256546640025558,
        "lon": -148.28906312375221,
        "alt_km": 821.9125673173876,
        "timestamp": "2025-12-04T23:34:05.388659+00:00",
        "meta_object_name": "IONOSFERA-M 2",
        "meta_object_id": "2024-199B",
        "meta_epoch": "2025-12-04T18:35:28.392288",
        "meta_mean_motion": 14.22713521,
        "meta_eccentricity": 0.0001425,
        "meta_inclination": 98.7407,
        "meta_ra_of_asc_node": 208.5962,
        "meta_arg_of_pericenter": 120.1606,
        "meta_mean_anomaly": 239.9713,
        "meta_ephemeris_type": 0,
        "meta_classification_type": "U",
        "meta_norad_cat_id": 61736,
        "meta_element_set_no": 999,
        "meta_rev_at_epoch": 10318,
        "meta_bstar": 9.9121e-05,
        "meta_mean_motion_dot": 1.78e-06,
        "meta_mean_motion_ddot": 0,
        "tle_line1": "1 61736U 24199B   25338.77463417  .00000178  00000+0  99121-4 0  9999",
        "tle_line2": "2 61736  98.7407 208.5962 0001425 120.1606 239.9713 14.22713521103185"
      },
      "geometry": {
        "type": "Point",
        "coordinates": [
          -148.28906312375221,
          -18.256546640025558
        ]
      }
    }
  ]
}